{
  "type": "FeatureCollection",
  "features": [
    {
      "type": "Feature",
      "properties": {
        "norad_id": 66934,
        "name": "STARLINK-36153",
        "group": "last-30-days",
        "lat": 34.544661626559495,
        "lon": 149.42417130212877,
        "alt_km": 348.8602042153898,
        "timestamp": "2025-12-22T16:55:16.168913+00:00",
        "meta_object_name": "STARLINK-36153",
        "meta_object_id": "2025-286K",
        "meta_epoch": "2025-12-22T06:00:02.000160",
        "meta_mean_motion": 15.73812437,
        "meta_eccentricity": 7.336e-05,
        "meta_inclination": 53.1589,
        "meta_ra_of_asc_node": 2.7531,
        "meta_arg_of_pericenter": 81.2924,
        "meta_mean_anomaly": 355.5946,
        "meta_ephemeris_type": 0,
        "meta_classification_type": "U",
        "meta_norad_cat_id": 66934,
        "meta_element_set_no": 999,
        "meta_rev_at_epoch": 352,
        "meta_bstar": -0.015676203,
        "meta_mean_motion_dot": -0.01996042,
        "meta_mean_motion_ddot": 0,
        "tle_line1": "1 66934U 25286K   25356.25002315 -.01996042  00000+0 -15676-1 0  9998",
        "tle_line2": "2 66934  53.1589   2.7531 0000733  81.2924 355.5946 15.73812437  3526"
      },
      "geometry": {
        "type": "Point",
        "coordinates": [
          149.42417130212877,
          34.544661626559495
        ]
      }
    },
    {
      "type": "Feature",
      "properties": {
        "norad_id": 66935,
        "name": "STARLINK-36127",
        "group": "last-30-days",
        "lat": 33.216173271976935,
        "lon": 151.09287279400837,
        "alt_km": 349.0124165819443,
        "timestamp": "2025-12-22T16:55:16.168928+00:00",
        "meta_object_name": "STARLINK-36127",
        "meta_object_id": "2025-286L",
        "meta_epoch": "2025-12-22T06:00:02.000160",
        "meta_mean_motion": 15.73830977,
        "meta_eccentricity": 0.00010879,
        "meta_inclination": 53.1586,
        "meta_ra_of_asc_node": 2.7492,
        "meta_arg_of_pericenter": 64.954,
        "meta_mean_anomaly": 13.8419,
        "meta_ephemeris_type": 0,
        "meta_classification_type": "U",
        "meta_norad_cat_id": 66935,
        "meta_element_set_no": 999,
        "meta_rev_at_epoch": 352,
        "meta_bstar": -0.015893917,
        "meta_mean_motion_dot": -0.02022185,
        "meta_mean_motion_ddot": 0,
        "tle_line1": "1 66935U 25286L   25356.25002315 -.02022185  00000+0 -15894-1 0  9990",
        "tle_line2": "2 66935  53.1586   2.7492 0001087  64.9540  13.8419 15.73830977  3523"
      },
      "geometry": {
        "type": "Point",
        "coordinates": [
          151.09287279400837,
          33.216173271976935
        ]
      }
    },
    {
      "type": "Feature",
      "properties": {
        "norad_id": 66936,
        "name": "STARLINK-36160",
        "group": "last-30-days",
        "lat": 31.867242315673334,
        "lon": 152.7103757964474,
        "alt_km": 349.1864461190389,
        "timestamp": "2025-12-22T16:55:16.168941+00:00",
        "meta_object_name": "STARLINK-36160",
        "meta_object_id": "2025-286M",
        "meta_epoch": "2025-12-22T06:00:02.000160",
        "meta_mean_motion": 15.73825751,
        "meta_eccentricity": 0.00010807,
        "meta_inclination": 53.1588,
        "meta_ra_of_asc_node": 2.7454,
        "meta_arg_of_pericenter": 73.574,
        "meta_mean_anomaly": 7.1439,
        "meta_ephemeris_type": 0,
        "meta_classification_type": "U",
        "meta_norad_cat_id": 66936,
        "meta_element_set_no": 999,
        "meta_rev_at_epoch": 352,
        "meta_bstar": -0.015848926,
        "meta_mean_motion_dot": -0.0201673,
        "meta_mean_motion_ddot": 0,
        "tle_line1": "1 66936U 25286M   25356.25002315 -.02016730  00000+0 -15849-1 0  9990",
        "tle_line2": "2 66936  53.1588   2.7454 0001080  73.5740   7.1439 15.73825751  3527"
      },
      "geometry": {
        "type": "Point",
        "coordinates": [
          152.7103757964474,
          31.867242315673334
        ]
      }
    },
    {
      "type": "Feature",
      "properties": {
        "norad_id": 66937,
        "name": "STARLINK-36165",
        "group": "last-30-days",
        "lat": 30.49972586320566,
        "lon": 154.27836110479691,
        "alt_km": 349.56483824922634,
        "timestamp": "2025-12-22T16:55:16.168955+00:00",
        "meta_object_name": "STARLINK-36165",
        "meta_object_id": "2025-286N",
        "meta_epoch": "2025-12-22T06:00:02.000160",
        "meta_mean_motion": 15.73813624,
        "meta_eccentricity": 0.00010334,
        "meta_inclination": 53.1587,
        "meta_ra_of_asc_node": 2.7411,
        "meta_arg_of_pericenter": 56.1235,
        "meta_mean_anomaly": 26.5145,
        "meta_ephemeris_type": 0,
        "meta_classification_type": "U",
        "meta_norad_cat_id": 66937,
        "meta_element_set_no": 999,
        "meta_rev_at_epoch": 352,
        "meta_bstar": -0.015708773,
        "meta_mean_motion_dot": -0.02000029,
        "meta_mean_motion_ddot": 0,
        "tle_line1": "1 66937U 25286N   25356.25002315 -.02000029  00000+0 -15709-1 0  9990",
        "tle_line2": "2 66937  53.1587   2.7411 0001033  56.1235  26.5145 15.73813624  3529"
      },
      "geometry": {
        "type": "Point",
        "coordinates": [
          154.27836110479691,
          30.49972586320566
        ]
      }
    },
    {
      "type": "Feature",
      "properties": {
        "norad_id": 66938,
        "name": "STARLINK-36155",
        "group": "last-30-days",
        "lat": 29.1138169629458,
        "lon": 155.8023223200927,
        "alt_km": 349.91340715713613,
        "timestamp": "2025-12-22T16:55:16.168965+00:00",
        "meta_object_name": "STARLINK-36155",
        "meta_object_id": "2025-286P",
        "meta_epoch": "2025-12-22T06:00:02.000160",
        "meta_mean_motion": 15.73807313,
        "meta_eccentricity": 8.049e-05,
        "meta_inclination": 53.1585,
        "meta_ra_of_asc_node": 2.7367,
        "meta_arg_of_pericenter": 71.4933,
        "meta_mean_anomaly": 13.0672,
        "meta_ephemeris_type": 0,
        "meta_classification_type": "U",
        "meta_norad_cat_id": 66938,
        "meta_element_set_no": 999,
        "meta_rev_at_epoch": 352,
        "meta_bstar": -0.015662427,
        "meta_mean_motion_dot": -0.01994156,
        "meta_mean_motion_ddot": 0,
        "tle_line1": "1 66938U 25286P   25356.25002315 -.01994156  00000+0 -15662-1 0  9991",
        "tle_line2": "2 66938  53.1585   2.7367 0000804  71.4933  13.0672 15.73807313  3522"
      },
      "geometry": {
        "type": "Point",
        "coordinates": [
          155.8023223200927,
          29.1138169629458
        ]
      }
    },
    {
      "type": "Feature",
      "properties": {
        "norad_id": 66939,
        "name": "STARLINK-36154",
        "group": "last-30-days",
        "lat": 26.2913974875986,
        "lon": 158.73290022327254,
        "alt_km": 350.43848494560643,
        "timestamp": "2025-12-22T16:55:16.168975+00:00",
        "meta_object_name": "STARLINK-36154",
        "meta_object_id": "2025-286Q",
        "meta_epoch": "2025-12-22T06:00:02.000160",
        "meta_mean_motion": 15.73807937,
        "meta_eccentricity": 0.0001009,
        "meta_inclination": 53.1583,
        "meta_ra_of_asc_node": 2.7287,
        "meta_arg_of_pericenter": 43.7014,
        "meta_mean_anomaly": 44.6927,
        "meta_ephemeris_type": 0,
        "meta_classification_type": "U",
        "meta_norad_cat_id": 66939,
        "meta_element_set_no": 999,
        "meta_rev_at_epoch": 352,
        "meta_bstar": -0.015685035,
        "meta_mean_motion_dot": -0.01996906,
        "meta_mean_motion_ddot": 0,
        "tle_line1": "1 66939U 25286Q   25356.25002315 -.01996906  00000+0 -15685-1 0  9992",
        "tle_line2": "2 66939  53.1583   2.7287 0001009  43.7014  44.6927 15.73807937  3527"
      },
      "geometry": {
        "type": "Point",
        "coordinates": [
          158.73290022327254,
          26.2913974875986
        ]
      }
    },
    {
      "type": "Feature",
      "properties": {
        "norad_id": 66940,
        "name": "STARLINK-36121",
        "group": "last-30-days",
        "lat": 24.858987598062008,
        "lon": 160.14293731717441,
        "alt_km": 350.52374565234095,
        "timestamp": "2025-12-22T16:55:16.168985+00:00",
        "meta_object_name": "STARLINK-36121",
        "meta_object_id": "2025-286R",
        "meta_epoch": "2025-12-22T06:00:02.000160",
        "meta_mean_motion": 15.73809436,
        "meta_eccentricity": 7.332e-05,
        "meta_inclination": 53.1585,
        "meta_ra_of_asc_node": 2.7242,
        "meta_arg_of_pericenter": 86.2328,
        "meta_mean_anomaly": 4.0775,
        "meta_ephemeris_type": 0,
        "meta_classification_type": "U",
        "meta_norad_cat_id": 66940,
        "meta_element_set_no": 999,
        "meta_rev_at_epoch": 352,
        "meta_bstar": -0.015676485,
        "meta_mean_motion_dot": -0.01995844,
        "meta_mean_motion_ddot": 0,
        "tle_line1": "1 66940U 25286R   25356.25002315 -.01995844  00000+0 -15676-1 0  9994",
        "tle_line2": "2 66940  53.1585   2.7242 0000733  86.2328   4.0775 15.73809436  3522"
      },
      "geometry": {
        "type": "Point",
        "coordinates": [
          160.14293731717441,
          24.858987598062008
        ]
      }
    }
  ]
}